[{"OBJECT_NAME":"LANDSAT 9","OBJECT_ID":"2021-088A","EPOCH":"2026-03-03T04:06:40.702752","MEAN_MOTION":14.5711765,"ECCENTRICITY":0.0001171,"INCLINATION":98.1952,"RA_OF_ASC_NODE":134.0624,"ARG_OF_PERICENTER":89.8011,"MEAN_ANOMALY":270.3322,"EPHEMERIS_TYPE":0,"CLASSIFICATION_TYPE":"U","NORAD_CAT_ID":49260,"ELEMENT_SET_NO":999,"REV_AT_EPOCH":23556,"BSTAR":0.00011642,"MEAN_MOTION_DOT":4.79e-6,"MEAN_MOTION_DDOT":0},{"OBJECT_NAME":"CSG-2","OBJECT_ID":"2022-008A","EPOCH":"2026-03-03T03:51:55.890720","MEAN_MOTION":14.82150509,"ECCENTRICITY":0.0001423,"INCLINATION":97.8854,"RA_OF_ASC_NODE":247.2909,"ARG_OF_PERICENTER":77.1154,"MEAN_ANOMALY":283.0218,"EPHEMERIS_TYPE":0,"CLASSIFICATION_TYPE":"U","NORAD_CAT_ID":51444,"ELEMENT_SET_NO":999,"REV_AT_EPOCH":22088,"BSTAR":5.62e-5,"MEAN_MOTION_DOT":3.95e-6,"MEAN_MOTION_DDOT":0},{"OBJECT_NAME":"GAOFEN-12 03","OBJECT_ID":"2022-069A","EPOCH":"2026-03-03T04:09:59.503104","MEAN_MOTION":14.79832998,"ECCENTRICITY":0.0002107,"INCLINATION":97.8426,"RA_OF_ASC_NODE":312.6493,"ARG_OF_PERICENTER":99.2932,"MEAN_ANOMALY":260.8518,"EPHEMERIS_TYPE":0,"CLASSIFICATION_TYPE":"U","NORAD_CAT_ID":52912,"ELEMENT_SET_NO":999,"REV_AT_EPOCH":19893,"BSTAR":0.00016442,"MEAN_MOTION_DOT":1.188e-5,"MEAN_MOTION_DDOT":0},{"OBJECT_NAME":"SWOT","OBJECT_ID":"2022-173A","EPOCH":"2026-03-03T02:14:01.165056","MEAN_MOTION":14.00168428,"ECCENTRICITY":5.0e-5,"INCLINATION":77.6117,"RA_OF_ASC_NODE":178.5236,"ARG_OF_PERICENTER":276.8588,"MEAN_ANOMALY":83.2507,"EPHEMERIS_TYPE":0,"CLASSIFICATION_TYPE":"U","NORAD_CAT_ID":54754,"ELEMENT_SET_NO":999,"REV_AT_EPOCH":16430,"BSTAR":1.5986e-5,"MEAN_MOTION_DOT":2.1e-7,"MEAN_MOTION_DDOT":0},{"OBJECT_NAME":"GAOFEN-12 04","OBJECT_ID":"2023-123A","EPOCH":"2026-03-03T04:52:07.000320","MEAN_MOTION":14.79979861,"ECCENTRICITY":0.0001707,"INCLINATION":97.9132,"RA_OF_ASC_NODE":341.7607,"ARG_OF_PERICENTER":78.4636,"MEAN_ANOMALY":281.6768,"EPHEMERIS_TYPE":0,"CLASSIFICATION_TYPE":"U","NORAD_CAT_ID":57654,"ELEMENT_SET_NO":999,"REV_AT_EPOCH":13695,"BSTAR":0.00021121,"MEAN_MOTION_DOT":1.545e-5,"MEAN_MOTION_DDOT":0},{"OBJECT_NAME":"PARS 1","OBJECT_ID":"2024-039Q","EPOCH":"2026-03-03T04:42:55.553184","MEAN_MOTION":15.43213832,"ECCENTRICITY":0.0011612,"INCLINATION":97.4739,"RA_OF_ASC_NODE":40.023,"ARG_OF_PERICENTER":129.8539,"MEAN_ANOMALY":230.3732,"EPHEMERIS_TYPE":0,"CLASSIFICATION_TYPE":"U","NORAD_CAT_ID":59065,"ELEMENT_SET_NO":999,"REV_AT_EPOCH":11228,"BSTAR":0.00033251,"MEAN_MOTION_DOT":0.00014714,"MEAN_MOTION_DDOT":0},{"OBJECT_NAME":"RESURS-P 4","OBJECT_ID":"2024-061A","EPOCH":"2026-03-03T03:39:45.139392","MEAN_MOTION":15.32855784,"ECCENTRICITY":0.0002768,"INCLINATION":97.2648,"RA_OF_ASC_NODE":11.9274,"ARG_OF_PERICENTER":66.6839,"MEAN_ANOMALY":293.4694,"EPHEMERIS_TYPE":0,"CLASSIFICATION_TYPE":"U","NORAD_CAT_ID":59371,"ELEMENT_SET_NO":999,"REV_AT_EPOCH":10752,"BSTAR":0.00015744,"MEAN_MOTION_DOT":4.919e-5,"MEAN_MOTION_DDOT":0},{"OBJECT_NAME":"LEGION 1","OBJECT_ID":"2024-081A","EPOCH":"2026-03-03T04:58:10.263072","MEAN_MOTION":15.17432557,"ECCENTRICITY":0.0005601,"INCLINATION":97.5087,"RA_OF_ASC_NODE":141.1613,"ARG_OF_PERICENTER":40.9835,"MEAN_ANOMALY":319.1818,"EPHEMERIS_TYPE":0,"CLASSIFICATION_TYPE":"U","NORAD_CAT_ID":59625,"ELEMENT_SET_NO":999,"REV_AT_EPOCH":10147,"BSTAR":0.00027096,"MEAN_MOTION_DOT":5.355e-5,"MEAN_MOTION_DDOT":0},{"OBJECT_NAME":"LEGION 2","OBJECT_ID":"2024-081B","EPOCH":"2026-03-03T04:13:20.435808","MEAN_MOTION":15.16484098,"ECCENTRICITY":0.0010779,"INCLINATION":97.5087,"RA_OF_ASC_NODE":141.2164,"ARG_OF_PERICENTER":8.0849,"MEAN_ANOMALY":352.0555,"EPHEMERIS_TYPE":0,"CLASSIFICATION_TYPE":"U","NORAD_CAT_ID":59626,"ELEMENT_SET_NO":999,"REV_AT_EPOCH":10147,"BSTAR":0.00028828,"MEAN_MOTION_DOT":5.554e-5,"MEAN_MOTION_DDOT":0},{"OBJECT_NAME":"ALOS-4 (DAICHI-4)","OBJECT_ID":"2024-123A","EPOCH":"2026-03-01T11:41:18.656736","MEAN_MOTION":14.79470212,"ECCENTRICITY":0.00014216,"INCLINATION":97.9199,"RA_OF_ASC_NODE":159.2056,"ARG_OF_PERICENTER":100.4469,"MEAN_ANOMALY":259.6903,"EPHEMERIS_TYPE":0,"CLASSIFICATION_TYPE":"U","NORAD_CAT_ID":60182,"ELEMENT_SET_NO":999,"REV_AT_EPOCH":8995,"BSTAR":2.0161707e-5,"MEAN_MOTION_DOT":9.9e-7,"MEAN_MOTION_DDOT":0},{"OBJECT_NAME":"LEGION 3","OBJECT_ID":"2024-146A","EPOCH":"2026-03-02T22:57:33.058368","MEAN_MOTION":15.16053829,"ECCENTRICITY":0.0013809,"INCLINATION":44.9994,"RA_OF_ASC_NODE":240.0271,"ARG_OF_PERICENTER":284.538,"MEAN_ANOMALY":75.3967,"EPHEMERIS_TYPE":0,"CLASSIFICATION_TYPE":"U","NORAD_CAT_ID":60452,"ELEMENT_SET_NO":999,"REV_AT_EPOCH":8590,"BSTAR":0.00035731,"MEAN_MOTION_DOT":6.746e-5,"MEAN_MOTION_DDOT":0},{"OBJECT_NAME":"LEGION 4","OBJECT_ID":"2024-146B","EPOCH":"2026-03-03T03:39:53.349120","MEAN_MOTION":15.16115675,"ECCENTRICITY":0.0009638,"INCLINATION":45.0042,"RA_OF_ASC_NODE":330.8258,"ARG_OF_PERICENTER":62.9627,"MEAN_ANOMALY":297.2235,"EPHEMERIS_TYPE":0,"CLASSIFICATION_TYPE":"U","NORAD_CAT_ID":60453,"ELEMENT_SET_NO":999,"REV_AT_EPOCH":8478,"BSTAR":0.0003587,"MEAN_MOTION_DOT":6.778e-5,"MEAN_MOTION_DDOT":0},{"OBJECT_NAME":"SENTINEL-2C","OBJECT_ID":"2024-157A","EPOCH":"2026-03-03T03:48:20.159424","MEAN_MOTION":14.3082231,"ECCENTRICITY":7.9e-5,"INCLINATION":98.563,"RA_OF_ASC_NODE":138.4638,"ARG_OF_PERICENTER":98.312,"MEAN_ANOMALY":261.8152,"EPHEMERIS_TYPE":0,"CLASSIFICATION_TYPE":"U","NORAD_CAT_ID":60989,"ELEMENT_SET_NO":999,"REV_AT_EPOCH":7782,"BSTAR":7.6045e-5,"MEAN_MOTION_DOT":1.56e-6,"MEAN_MOTION_DDOT":0},{"OBJECT_NAME":"IONOSFERA-M 1","OBJECT_ID":"2024-199A","EPOCH":"2026-03-03T03:23:50.548992","MEAN_MOTION":14.22733756,"ECCENTRICITY":0.0002109,"INCLINATION":98.7338,"RA_OF_ASC_NODE":296.3429,"ARG_OF_PERICENTER":85.6987,"MEAN_ANOMALY":274.4432,"EPHEMERIS_TYPE":0,"CLASSIFICATION_TYPE":"U","NORAD_CAT_ID":61735,"ELEMENT_SET_NO":999,"REV_AT_EPOCH":11262,"BSTAR":5.1675e-5,"MEAN_MOTION_DOT":7.2e-7,"MEAN_MOTION_DDOT":0},{"OBJECT_NAME":"IONOSFERA-M 2","OBJECT_ID":"2024-199B","EPOCH":"2026-03-03T04:13:32.309760","MEAN_MOTION":14.22736115,"ECCENTRICITY":2.31e-5,"INCLINATION":98.7337,"RA_OF_ASC_NODE":296.2887,"ARG_OF_PERICENTER":60.7154,"MEAN_ANOMALY":299.4047,"EPHEMERIS_TYPE":0,"CLASSIFICATION_TYPE":"U","NORAD_CAT_ID":61736,"ELEMENT_SET_NO":999,"REV_AT_EPOCH":11575,"BSTAR":5.5192e-5,"MEAN_MOTION_DOT":8.0e-7,"MEAN_MOTION_DDOT":0},{"OBJECT_NAME":"BIOMASS","OBJECT_ID":"2025-090A","EPOCH":"2026-03-03T01:48:39.760416","MEAN_MOTION":14.67531218,"ECCENTRICITY":0.0001276,"INCLINATION":98.0742,"RA_OF_ASC_NODE":250.9188,"ARG_OF_PERICENTER":88.7871,"MEAN_ANOMALY":271.3479,"EPHEMERIS_TYPE":0,"CLASSIFICATION_TYPE":"U","NORAD_CAT_ID":63772,"ELEMENT_SET_NO":999,"REV_AT_EPOCH":4512,"BSTAR":7.3645e-5,"MEAN_MOTION_DOT":3.7e-6,"MEAN_MOTION_DDOT":0},{"OBJECT_NAME":"GOSAT-GW (IBUKI GW)","OBJECT_ID":"2025-141A","EPOCH":"2026-03-03T04:02:03.988608","MEAN_MOTION":14.67561522,"ECCENTRICITY":0.0001426,"INCLINATION":98.0499,"RA_OF_ASC_NODE":1.254,"ARG_OF_PERICENTER":84.4608,"MEAN_ANOMALY":275.6759,"EPHEMERIS_TYPE":0,"CLASSIFICATION_TYPE":"U","NORAD_CAT_ID":64694,"ELEMENT_SET_NO":999,"REV_AT_EPOCH":3629,"BSTAR":0.00028923,"MEAN_MOTION_DOT":1.593e-5,"MEAN_MOTION_DDOT":0}]
