LANDSAT 9               
1 49260U 21088A   26062.17130443  .00000479  00000+0  11642-3 0  9995
2 49260  98.1952 134.0624 0001171  89.8011 270.3322 14.57117650235561
CSG-2                   
1 51444U 22008A   26062.16106355  .00000395  00000+0  56200-4 0  9996
2 51444  97.8854 247.2909 0001423  77.1154 283.0218 14.82150509220888
GAOFEN-12 03            
1 52912U 22069A   26062.17360536  .00001188  00000+0  16442-3 0  9992
2 52912  97.8426 312.6493 0002107  99.2932 260.8518 14.79832998198939
SWOT                    
1 54754U 22173A   26062.09306904  .00000021  00000+0  15986-4 0  9992
2 54754  77.6117 178.5236 0000500 276.8588  83.2507 14.00168428164300
GAOFEN-12 04            
1 57654U 23123A   26062.20285880  .00001545  00000+0  21121-3 0  9991
2 57654  97.9132 341.7607 0001707  78.4636 281.6768 14.79979861136950
PARS 1                  
1 59065U 24039Q   26062.19647631  .00014714  00000+0  33251-3 0  9999
2 59065  97.4739  40.0230 0011612 129.8539 230.3732 15.43213832112289
RESURS-P 4              
1 59371U 24061A   26062.15260578  .00004919  00000+0  15744-3 0  9994
2 59371  97.2648  11.9274 0002768  66.6839 293.4694 15.32855784107528
LEGION 1                
1 59625U 24081A   26062.20706323  .00005355  00000+0  27096-3 0  9995
2 59625  97.5087 141.1613 0005601  40.9835 319.1818 15.17432557101477
LEGION 2                
1 59626U 24081B   26062.17593097  .00005554  00000+0  28828-3 0  9999
2 59626  97.5087 141.2164 0010779   8.0849 352.0555 15.16484098101472
ALOS-4 (DAICHI-4)       
1 60182U 24123A   26060.48702149  .00000099  00000+0  20162-4 0  9990
2 60182  97.9199 159.2056 0001421 100.4469 259.6903 14.79470212 89955
LEGION 3                
1 60452U 24146A   26061.95663262  .00006746  00000+0  35731-3 0  9992
2 60452  44.9994 240.0271 0013809 284.5380  75.3967 15.16053829 85904
LEGION 4                
1 60453U 24146B   26062.15270080  .00006778  00000+0  35870-3 0  9997
2 60453  45.0042 330.8258 0009638  62.9627 297.2235 15.16115675 84787
SENTINEL-2C             
1 60989U 24157A   26062.15856666  .00000156  00000+0  76045-4 0  9997
2 60989  98.5630 138.4638 0000790  98.3120 261.8152 14.30822310 77820
IONOSFERA-M 1           
1 61735U 24199A   26062.14155728  .00000072  00000+0  51675-4 0  9992
2 61735  98.7338 296.3429 0002109  85.6987 274.4432 14.22733756112620
IONOSFERA-M 2           
1 61736U 24199B   26062.17606840  .00000080  00000+0  55192-4 0  9999
2 61736  98.7337 296.2887 0000231  60.7154 299.4047 14.22736115115759
BIOMASS                 
1 63772U 25090A   26062.07546019  .00000370  00000+0  73645-4 0  9997
2 63772  98.0742 250.9188 0001276  88.7871 271.3479 14.67531218 45128
GOSAT-GW (IBUKI GW)     
1 64694U 25141A   26062.16810172  .00001593  00000+0  28923-3 0  9998
2 64694  98.0499   1.2540 0001426  84.4608 275.6759 14.67561522 36295
